<?xml version="1.0" encoding="UTF-8"?>
<gpx version="1.1" creator="RouteMaker" xmlns="http://www.topografix.com/GPX/1/1">
  <metadata>
    <name>Alps High Trail</name>
    <desc>Scenic mountain hiking trail</desc>
    <time>2026-09-04T08:00:00Z</time>
  </metadata>
  <wpt lat="46.5196" lon="8.5601">
    <ele>2100.0</ele>
    <name>Trailhead</name>
    <sym>Flag</sym>
  </wpt>
  <wpt lat="46.5250" lon="8.5700">
    <ele>2450.0</ele>
    <name>Mountain Peak</name>
    <sym>Summit</sym>
    <desc>Summit viewpoint</desc>
  </wpt>
  <wpt lat="46.5300" lon="8.5800">
    <ele>2200.0</ele>
    <name>Spring Water</name>
    <sym>Water</sym>
  </wpt>
  <trk>
    <name>Alps High Trail</name>
    <type>Hiking</type>
    <trkseg>
      <trkpt lat="46.5196" lon="8.5601">
        <ele>2100.0</ele>
        <time>2026-09-04T08:00:00Z</time>
      </trkpt>
      <trkpt lat="46.5210" lon="8.5630">
        <ele>2180.0</ele>
        <time>2026-09-04T08:15:00Z</time>
      </trkpt>
      <trkpt lat="46.5230" lon="8.5665">
        <ele>2310.0</ele>
        <time>2026-09-04T08:35:00Z</time>
      </trkpt>
      <trkpt lat="46.5250" lon="8.5700">
        <ele>2450.0</ele>
        <time>2026-09-04T09:00:00Z</time>
      </trkpt>
      <trkpt lat="46.5280" lon="8.5750">
        <ele>2320.0</ele>
        <time>2026-09-04T09:25:00Z</time>
      </trkpt>
      <trkpt lat="46.5300" lon="8.5800">
        <ele>2200.0</ele>
        <time>2026-09-04T09:45:00Z</time>
      </trkpt>
    </trkseg>
  </trk>
</gpx>
